C/2014 A4 (SONEAR),h,09/05.7671/2015,121.3661,29.7308,356.7729,1.000900,4.179793,2000,6.0,4.0
# From MPC 93585
C/2014 A5 (PANSTARRS),e,31.9737,310.0518,182.4198,88.13854,0.0011911,0.94553910,0.9063,09/10.0/2016,2000,g 10.0,4.0
# From MPC 96865
C/2014 AA52 (Catalina),h,02/27.6681/2015,105.2056,330.4891,292.2413,1.000615,2.001697,2000,10.0,4.0
# From MPC 10027
C/2014 B1 (Schwartz),h,09/09.4281/2017,28.3677,161.3995,345.7872,1.004643,9.557332,2000,4.0,4.0
# From MPC 88696
P/2014 C1 (TOTAS),e,2.6830,167.9443,24.2600,3.070970,0.1831431,0.45039493,182.2516,09/10.0/2016,2000,g 15.5,4.0
# From MPC 88697
C/2014 C2 (STEREO),e,135.5387,283.3815,56.0601,602.2149,0.0000667,0.99914857,0.0000,02/18.0488/2014,2000,g 18.0,4.0
# From MPC 90272
C/2014 C3 (NEOWISE),e,151.7956,204.4987,345.9586,105.9770,0.0009034,0.98241678,0.0000,01/16.4191/2014,2000,g 14.0,4.0
# From MPC 91614
P/2014 E1 (Larson),e,15.9817,39.0651,185.8644,3.713997,0.1377025,0.42368002,115.8997,09/10.0/2016,2000,g 14.0,4.0
# From MPC 98560
C/2014 E2 (Jacques),e,156.3701,56.4734,344.0829,783.6078,0.0000449,0.99915423,0.0000,07/02.6265/2014,2000,g  7.1,4.4
# From MPC 90769
C/2014 F1 (Hill),e,108.2553,239.8608,8.2430,1815,0.0000127,0.99807292,0.0000,10/04.5582/2013,2000,g 10.5,4.0
# From MPC 97495
C/2014 F2 (Tenagra),e,119.0631,267.4504,86.1014,145.8040,0.0005598,0.97039981,0.0000,01/02.5984/2015,2000,g  9.5,4.0
# From MPC 94280
C/2014 F3 (Sheppard-Trujillo),e,6.4814,327.5200,1.0478,16.20720,0.0151057,0.64646390,334.3768,09/10.0/2016,2000,g  6.0,4.0
# From MPC 90272
C/2014 G1 (PANSTARRS),e,165.6358,337.9570,77.1184,667.5265,0.0000571,0.99179876,0.0000,11/06.0302/2013,2000,g  9.0,4.0
# From MPC101095
C/2014 G3 (PANSTARRS),e,156.0707,4.7042,148.0127,53.68113,0.0025059,0.91243988,1.4675,09/10.0/2016,2000,g  9.0,4.0
# From MPC 88697
C/2014 H1 (Christensen),e,99.9349,34.6733,169.2252,136.2755,0.0006196,0.98428846,0.0000,04/15.2379/2014,2000,g 14.5,4.0
# From MPEC 2016-P75
C/2014 HU195,e,5.8216,115.7887,145.0806,21.90384,0.0096144,0.76619470,4.6229,09/10.0/2016,2000,g 10.5,4.0
# From MPC 89010
C/2014 J1 (Catalina),e,159.6995,41.9781,195.5097,8.655011,0.0387082,0.80248513,31.4755,09/10.0/2016,2000,g 17.0,4.0
# From MPC 93585
P/2014 L2 (NEOWISE),e,5.1847,149.4048,182.7093,6.314223,0.0621190,0.64632445,48.9373,09/10.0/2016,2000,g 12.0,4.0
# From MPC 90769
P/2014 L3 (Hill),e,6.2652,115.5455,178.5573,8.157255,0.0423046,0.77302168,34.0298,09/10.0/2016,2000,g 16.0,4.0
# From MPC 95731
C/2014 L5 (Lemmon),h,11/25.8620/2014,122.8150,35.7123,45.5858,1.002064,6.202205,2000,8.0,4.0
# From MPC101095
C/2014 M1 (PANSTARRS),h,08/26.6461/2015,160.1729,234.6774,336.7638,1.001557,5.577244,2000,9.0,4.0
# From MPC 95732
C/2014 M2 (Christensen),e,32.3996,245.2881,40.7330,1163,0.0000248,0.99406204,0.0000,07/18.1204/2014,2000,g  6.0,4.0
# From MPC 90769
C/2014 M3 (Catalina),e,164.9045,80.3689,93.6730,134.6067,0.0006311,0.98193270,0.0000,06/21.7649/2014,2000,g 14.0,4.0
# From MPC 91614
P/2014 M4 (PANSTARRS),e,3.3317,264.4201,146.4405,5.860557,0.0694697,0.59687788,43.1529,09/10.0/2016,2000,g 15.0,4.0
# From MPC 95732
P/2014 MG4 (Spacewatch-PANSTARRS),e,9.3663,311.8346,298.7561,5.011941,0.0878406,0.25966924,104.0577,09/10.0/2016,2000,g  9.5,4.0
# From MPC 93586
C/2014 N2 (PANSTARRS),e,132.8789,143.8728,238.0290,5041,0.0000028,0.99956571,0.0000,10/08.0823/2014,2000,g 14.5,4.0
# From MPC101095
C/2014 N3 (NEOWISE),e,61.6431,19.9322,353.5332,3091,0.0000057,0.99874447,0.0000,03/13.0117/2015,2000,g  7.0,4.0
# From MPC 98560
P/2014 O3 (PANSTARRS),e,7.8057,87.6722,204.3115,7.546666,0.0475413,0.38540839,41.6903,09/10.0/2016,2000,g 10.5,4.0
# From MPC101095
C/2014 OE4 (PANSTARRS),e,81.3497,240.4015,65.7373,9741,0.0000010,0.99935894,0.0000,12/10.6874/2016,2000,g 11.0,2.0
# From MPC100578
C/2014 Q1 (PANSTARRS),e,43.1089,8.7478,120.0782,1298,0.0000211,0.99975729,0.0000,07/06.4824/2015,2000,g  8.0,4.0
# From MPC101095
C/2014 Q2 (Lovejoy),e,80.2872,94.9914,12.4042,552.5550,0.0000759,0.99766374,0.0000,01/30.0180/2015,2000,g  2.7,10.0
# From MPC 90770
C/2014 QU2 (PANSTARRS),e,124.8167,332.9962,320.3991,238.5134,0.0002676,0.99068861,0.0000,07/09.8144/2014,2000,g 15.0,4.0
# From MPC 94280
C/2014 Q3 (Borisov),e,89.9288,63.1377,47.3881,28.34522,0.0065311,0.94186354,4.3171,09/10.0/2016,2000,g -0.5,20.0
# From MPC 95732
C/2014 Q6 (PANSTARRS),e,49.7944,326.6477,2.4860,3731,0.0000043,0.99886850,0.0000,01/06.0634/2015,2000,g  9.5,4.0
# From MPC 95211
C/2014 R1 (Borisov),e,9.9290,104.0526,55.6880,182.8094,0.0003988,0.99263362,0.0000,11/19.2353/2014,2000,g  6.5,8.8
# From MPC101096
C/2014 R3 (PANSTARRS),e,90.8379,334.1111,113.4040,35740,0.0000001,0.99979644,0.0000,08/07.9376/2016,2000,g  6.5,4.0
# From MPC 92982
C/2014 R4 (Gibbs),e,42.4067,279.5212,180.8248,1476,0.0000174,0.99876828,0.0000,10/21.2988/2014,2000,g 13.0,4.0
# From MPC 91615
P/2014 R5 (Lemmon-PANSTARRS),e,1.0882,126.5435,213.8007,4.061058,0.1204329,0.41233795,98.2592,09/10.0/2016,2000,g 15.0,4.0
# From MPC 95732
C/2014 S1 (PANSTARRS),h,10/30.7599/2013,123.8098,352.6538,288.8220,1.003098,8.136250,2000,7.0,4.0
# From MPC101096
C/2014 S2 (PANSTARRS),e,64.6799,8.1178,87.8404,184.1904,0.0003943,0.98859392,0.0000,12/09.9257/2015,2000,g 10.0,4.0
# From MPC 90770
C/2014 S3 (PANSTARRS),e,169.3228,356.0592,293.1320,88.71730,0.0011795,0.97691728,0.0000,08/13.4415/2014,2000,g 17.0,4.0
# From MPC 91615
C/2014 TG64 (Catalina),e,22.2919,50.2965,294.6982,14.82453,0.0172676,0.78164490,14.4760,09/10.0/2016,2000,g 13.0,4.0
# From MPC 92274
P/2014 U2 (Kowalski),e,7.4922,356.1399,35.1826,2.929899,0.1965283,0.60647571,137.9419,09/10.0/2016,2000,g 19.5,4.0
# From MPC 91616
C/2014 U3 (Kowalski),e,152.9907,163.5841,51.3414,904.9613,0.0000362,0.99717219,0.0000,09/03.6926/2014,2000,g 14.5,4.0
# From MPC 91616
P/2014 U4 (PANSTARRS),e,6.4585,12.0087,347.9963,3.491278,0.1510871,0.46978035,116.1010,09/10.0/2016,2000,g 18.0,4.0
# From MPC 95211
P/2014 V1 (PANSTARRS),e,22.4713,166.2614,177.6640,5.492728,0.0765635,0.53250900,45.8314,09/10.0/2016,2000,g 14.0,4.0
# From MPC 93586
P/2014 W1 (PANSTARRS),e,8.7987,246.8811,151.3262,4.430514,0.1056873,0.39629883,81.3041,09/10.0/2016,2000,g 15.5,4.0
# From MPC101096
C/2014 W2 (PANSTARRS),e,81.9987,69.9629,85.0171,1533,0.0000164,0.99825786,0.0000,03/10.5033/2016,2000,g  7.5,4.0
# From MPC 98561
C/2014 W3 (PANSTARRS),h,02/27.4492/2014,90.1240,286.3830,158.9605,1.006322,6.068723,2000,8.5,4.0
# From MPC 10027
P/2014 W4 (PANSTARRS),e,15.2743,33.3477,67.4953,6.588929,0.0582749,0.35324878,14.8538,09/10.0/2016,2000,g 11.0,4.0
# From MPC 95211
C/2014 W6 (Catalina),h,03/19.1228/2015,53.5652,338.1326,209.8912,1.001411,3.088683,2000,10.5,4.0
# From MPC 92982
C/2014 W7 (Christensen),e,98.3048,151.2649,33.2722,11.39732,0.0256153,0.86936872,15.8381,09/10.0/2016,2000,g 16.0,4.0
# From MPC 91616
C/2014 W8 (PANSTARRS),e,41.9434,224.8502,228.0712,189.7624,0.0003770,0.97352993,0.0000,09/10.5006/2015,2000,g 11.0,4.0
# From MPC 94672
C/2014 W9 (PANSTARRS),e,10.6307,21.2757,167.8207,11.18543,0.0263466,0.85800170,15.0767,09/10.0/2016,2000,g 16.0,4.0
# From MPC101096
C/2014 W11 (PANSTARRS),e,12.7022,295.8808,225.6220,9.736847,0.0324397,0.64809330,14.6354,09/10.0/2016,2000,g 10.0,4.0
# From MPC 93587
P/2014 W12 (Gibbs),e,8.5123,299.2708,37.0028,3.518389,0.1493442,0.52346309,99.3207,09/10.0/2016,2000,g 15.0,4.0
# From MPC 94281
P/2014 X1 (Elenin),e,25.9896,61.5207,34.3198,6.245907,0.0631409,0.70970126,38.6083,09/10.0/2016,2000,g 15.0,4.0
# From MPC 96866
C/2014 XB8 (PANSTARRS),e,149.7882,37.4779,351.4437,1003,0.0000310,0.99700091,0.0000,04/05.6190/2015,2000,g 13.5,4.0
# From MPC100579
C/2014 Y1 (PANSTARRS),h,01/17.5902/2016,14.9285,19.4714,182.2681,1.001631,2.242180,2000,9.5,4.0
# From MPC 95733
C/2015 A1 (PANSTARRS),e,80.3618,341.0864,244.9006,20.20298,0.0108538,0.90121872,5.9354,09/10.0/2016,2000,g 14.5,4.0
# From MPC 93587
C/2015 A2 (PANSTARRS),p,08/01.8353/2015,109.1696,208.8369,5.341055,258.5042,2000,10.5,4.0
# From MPC 92275
P/2015 A3 (PANSTARRS),e,172.5182,277.0951,249.2453,7.847946,0.0448301,0.85282460,25.3522,09/10.0/2016,2000,g 20.0,4.0
# From MPC 99270
P/2015 B1 (PANSTARRS),e,18.0393,353.3541,188.5441,9.593941,0.0331672,0.37709767,11.7110,09/10.0/2016,2000,g  8.5,4.0
# From MPC101096
C/2015 B2 (PANSTARRS),h,05/06.5826/2016,105.0875,341.9030,284.7703,1.000597,3.369597,2000,9.5,4.0
# From MPC 10027
P/2015 B4 (Lemmon-PANSTARRS),e,1.7458,266.3084,227.8212,8.646972,0.0387622,0.56628657,22.1845,09/10.0/2016,2000,g 11.0,4.0
# From MPC101096
P/2015 C1 (TOTAS-Gibbs),e,13.8798,348.8589,178.3951,6.594440,0.0582019,0.56128780,28.9772,09/10.0/2016,2000,g 12.5,4.0
# From MPC 95211
C/2015 C2 (SWAN),e,94.4931,49.5528,334.1177,433.4623,0.0001092,0.99835950,0.0000,03/04.5258/2015,2000,g 14.0,4.0
# From MPC 98561
C/2015 D2 (PANSTARRS),e,31.9125,162.8097,292.6243,12.90173,0.0212683,0.56290729,22.8646,09/10.0/2016,2000,g  8.0,4.0
# From MPC 10027
C/2015 D3 (PANSTARRS),h,05/01.3762/2016,128.5065,156.9801,2.8852,1.002254,8.149032,2000,5.5,4.0
# From MPC 94672
C/2015 D4 (Borisov),e,77.3012,305.7732,314.6653,78.37527,0.0014205,0.98901942,0.0000,10/28.2630/2014,2000,g 12.0,4.0
# From MPC 96866
P/2015 D5 (Kowalski),e,20.4237,74.2380,40.2067,9.058501,0.0361509,0.49492844,31.8263,09/10.0/2016,2000,g  9.0,4.0
# From MPC 96866
P/2015 D6 (Lemmon-PANSTARRS),e,20.2255,46.2312,125.7032,7.196916,0.0510487,0.36591428,21.6397,09/10.0/2016,2000,g 10.5,4.0
# From MPC101096
C/2015 ER61 (PANSTARRS),e,6.3435,235.2582,68.1325,452.5469,0.0001024,0.99769671,0.0000,05/09.9057/2017,2000,g 11.0,2.0
# From MPC 95211
P/2015 F1 (PANSTARRS),e,2.8043,40.4231,187.2092,3.523136,0.1490424,0.27849456,81.1943,09/10.0/2016,2000,g 12.5,4.0
# From MPC 95733
C/2015 F2 (Polonia),e,28.6973,262.5252,352.0515,38.46924,0.0041308,0.96854093,2.0659,09/10.0/2016,2000,g 16.5,4.0
# From MPC 96279
C/2015 F3 (SWAN),e,73.4177,31.6427,57.5351,214.2274,0.0003143,0.99610677,0.0000,03/09.2567/2015,2000,g 14.5,4.0
# From MPC101096
C/2015 F4 (Jacques),e,48.7098,285.9496,36.3380,114.7776,0.0008015,0.98567963,0.0000,08/10.8405/2015,2000,g 11.0,4.0
